start=new Date('2022-05-13T00:00:00.000Z').valueOf();
sats=[{"TLE_LINE1":"1 51115U 22005M   22132.91667824 -.00649130  00000-0 -35540-1 0  9998","BSTAR":"-0.03554000000000","CLASSIFICATION_TYPE":"U","ECCENTRICITY":"0.00017480","PERIOD":"94.984","TIME_SYSTEM":"UTC","MEAN_ANOMALY":"104.6694","NORAD_CAT_ID":"51115","APOAPSIS":"518.996","SITE":"AFETR","RA_OF_ASC_NODE":"79.6455","ELEMENT_SET_NO":"999","SEMIMAJOR_AXIS":"6895.925","GP_ID":"203393925","OBJECT_NAME":"STARLINK-3397","OBJECT_TYPE":"PAYLOAD","PERIAPSIS":"516.585","DECAY_DATE":null,"MEAN_MOTION_DDOT":"0.0000000000000","MEAN_MOTION_DOT":"-0.00649130","CENTER_NAME":"EARTH","RCS_SIZE":"LARGE","MEAN_ELEMENT_THEORY":"SGP4","COUNTRY_CODE":"US","OBJECT_ID":"2022-005M","INCLINATION":"53.2177","MEAN_MOTION":"15.16051479","EPHEMERIS_TYPE":"0","ARG_OF_PERICENTER":"46.4635","FILE":"3442534","REF_FRAME":"TEME","LAUNCH_DATE":"2022-01-19","TLE_LINE2":"2 51115  53.2177  79.6455 0001748  46.4635 104.6694 15.16051479  1307","EPOCH":"2022-05-12T22:00:00.999936","REV_AT_EPOCH":"130"},{"TLE_LINE1":"1 51116U 22005N   22132.91667824 -.00649848  00000-0 -36049-1 0  9990","BSTAR":"-0.03604900000000","PERIOD":"95.012","CLASSIFICATION_TYPE":"U","ECCENTRICITY":"0.00017810","TIME_SYSTEM":"UTC","MEAN_ANOMALY":"40.4632","APOAPSIS":"520.404","NORAD_CAT_ID":"51116","SITE":"AFETR","ELEMENT_SET_NO":"999","RA_OF_ASC_NODE":"79.6419","GP_ID":"203393174","SEMIMAJOR_AXIS":"6897.310","OBJECT_TYPE":"PAYLOAD","OBJECT_NAME":"STARLINK-3243","PERIAPSIS":"517.947","DECAY_DATE":null,"MEAN_MOTION_DDOT":"0.0000000000000","MEAN_MOTION_DOT":"-0.00649848","CENTER_NAME":"EARTH","MEAN_ELEMENT_THEORY":"SGP4","RCS_SIZE":"LARGE","OBJECT_ID":"2022-005N","INCLINATION":"53.2174","COUNTRY_CODE":"US","MEAN_MOTION":"15.15594837","ARG_OF_PERICENTER":"39.0780","EPHEMERIS_TYPE":"0","FILE":"3442534","REF_FRAME":"TEME","LAUNCH_DATE":"2022-01-19","TLE_LINE2":"2 51116  53.2174  79.6419 0001781  39.0780  40.4632 15.15594837  1309","EPOCH":"2022-05-12T22:00:00.999936","REV_AT_EPOCH":"130"},{"RA_OF_ASC_NODE":"79.6482","ELEMENT_SET_NO":"999","NORAD_CAT_ID":"51117","APOAPSIS":"517.645","SITE":"AFETR","OBJECT_TYPE":"PAYLOAD","OBJECT_NAME":"STARLINK-3391","SEMIMAJOR_AXIS":"6894.539","GP_ID":"203393424","BSTAR":"-0.03508400000000","TLE_LINE1":"1 51117U 22005P   22132.91667824 -.00649250  00000-0 -35084-1 0  9996","TIME_SYSTEM":"UTC","MEAN_ANOMALY":"176.6199","ECCENTRICITY":"0.00018010","CLASSIFICATION_TYPE":"U","PERIOD":"94.955","LAUNCH_DATE":"2022-01-19","FILE":"3442534","REF_FRAME":"TEME","EPOCH":"2022-05-12T22:00:00.999936","REV_AT_EPOCH":"130","TLE_LINE2":"2 51117  53.2176  79.6482 0001801  45.5548 176.6199 15.16508854  1304","MEAN_MOTION_DDOT":"0.0000000000000","CENTER_NAME":"EARTH","MEAN_MOTION_DOT":"-0.00649250","PERIAPSIS":"515.162","DECAY_DATE":null,"MEAN_MOTION":"15.16508854","EPHEMERIS_TYPE":"0","ARG_OF_PERICENTER":"45.5548","RCS_SIZE":"LARGE","MEAN_ELEMENT_THEORY":"SGP4","COUNTRY_CODE":"US","OBJECT_ID":"2022-005P","INCLINATION":"53.2176"},{"BSTAR":"-0.03566600000000","TLE_LINE1":"1 51118U 22005Q   22132.91667824 -.00649291  00000-0 -35666-1 0  9998","MEAN_ANOMALY":"86.2386","TIME_SYSTEM":"UTC","ECCENTRICITY":"0.00016930","CLASSIFICATION_TYPE":"U","PERIOD":"94.991","RA_OF_ASC_NODE":"79.6447","ELEMENT_SET_NO":"999","SITE":"AFETR","NORAD_CAT_ID":"51118","APOAPSIS":"519.304","OBJECT_TYPE":"PAYLOAD","OBJECT_NAME":"STARLINK-3394","SEMIMAJOR_AXIS":"6896.272","GP_ID":"203393675","MEAN_MOTION_DOT":"-0.00649291","CENTER_NAME":"EARTH","MEAN_MOTION_DDOT":"0.0000000000000","DECAY_DATE":null,"PERIAPSIS":"516.969","EPHEMERIS_TYPE":"0","ARG_OF_PERICENTER":"47.0480","MEAN_MOTION":"15.15937280","COUNTRY_CODE":"US","OBJECT_ID":"2022-005Q","INCLINATION":"53.2176","RCS_SIZE":"LARGE","MEAN_ELEMENT_THEORY":"SGP4","LAUNCH_DATE":"2022-01-19","REF_FRAME":"TEME","FILE":"3442534","REV_AT_EPOCH":"130","EPOCH":"2022-05-12T22:00:00.999936","TLE_LINE2":"2 51118  53.2176  79.6447 0001693  47.0480  86.2386 15.15937280  1309"},{"FILE":"3442534","REF_FRAME":"TEME","LAUNCH_DATE":"2022-01-19","TLE_LINE2":"2 51119  53.2175  79.6486 0001851  42.7626 197.0866 15.16623346  1302","EPOCH":"2022-05-12T22:00:00.999936","REV_AT_EPOCH":"130","PERIAPSIS":"514.781","DECAY_DATE":null,"MEAN_MOTION_DDOT":"0.0000000000000","MEAN_MOTION_DOT":"-0.00649536","CENTER_NAME":"EARTH","MEAN_ELEMENT_THEORY":"SGP4","RCS_SIZE":"LARGE","OBJECT_ID":"2022-005R","INCLINATION":"53.2175","COUNTRY_CODE":"US","MEAN_MOTION":"15.16623346","ARG_OF_PERICENTER":"42.7626","EPHEMERIS_TYPE":"0","APOAPSIS":"517.333","NORAD_CAT_ID":"51119","SITE":"AFETR","ELEMENT_SET_NO":"999","RA_OF_ASC_NODE":"79.6486","GP_ID":"203394426","SEMIMAJOR_AXIS":"6894.192","OBJECT_NAME":"STARLINK-3390","OBJECT_TYPE":"PAYLOAD","TLE_LINE1":"1 51119U 22005R   22132.91667824 -.00649536  00000-0 -34985-1 0  9994","BSTAR":"-0.03498500000000","PERIOD":"94.948","CLASSIFICATION_TYPE":"U","ECCENTRICITY":"0.00018510","MEAN_ANOMALY":"197.0866","TIME_SYSTEM":"UTC"},{"LAUNCH_DATE":"2022-01-19","REF_FRAME":"TEME","FILE":"3442534","REV_AT_EPOCH":"130","EPOCH":"2022-05-12T22:00:00.999936","TLE_LINE2":"2 51120  53.2174  79.6491 0001893  39.4541 235.6412 15.16852217  1301","CENTER_NAME":"EARTH","MEAN_MOTION_DOT":"-0.00649947","MEAN_MOTION_DDOT":"0.0000000000000","DECAY_DATE":null,"PERIAPSIS":"514.058","EPHEMERIS_TYPE":"0","ARG_OF_PERICENTER":"39.4541","MEAN_MOTION":"15.16852217","COUNTRY_CODE":"US","INCLINATION":"53.2174","OBJECT_ID":"2022-005S","RCS_SIZE":"LARGE","MEAN_ELEMENT_THEORY":"SGP4","RA_OF_ASC_NODE":"79.6491","ELEMENT_SET_NO":"999","SITE":"AFETR","NORAD_CAT_ID":"51120","APOAPSIS":"516.668","OBJECT_TYPE":"PAYLOAD","OBJECT_NAME":"STARLINK-3398","SEMIMAJOR_AXIS":"6893.498","GP_ID":"203392674","BSTAR":"-0.03477900000000","TLE_LINE1":"1 51120U 22005S   22132.91667824 -.00649947  00000-0 -34779-1 0  9993","MEAN_ANOMALY":"235.6412","TIME_SYSTEM":"UTC","ECCENTRICITY":"0.00018930","CLASSIFICATION_TYPE":"U","PERIOD":"94.933"},{"OBJECT_NAME":"STARLINK-3399","OBJECT_TYPE":"PAYLOAD","GP_ID":"203392924","SEMIMAJOR_AXIS":"6894.885","RA_OF_ASC_NODE":"79.6476","ELEMENT_SET_NO":"999","SITE":"AFETR","NORAD_CAT_ID":"51121","APOAPSIS":"517.984","MEAN_ANOMALY":"158.4431","TIME_SYSTEM":"UTC","CLASSIFICATION_TYPE":"U","ECCENTRICITY":"0.00017900","PERIOD":"94.962","BSTAR":"-0.03519700000000","TLE_LINE1":"1 51121U 22005T   22132.91667824 -.00649211  00000-0 -35197-1 0  9993","REV_AT_EPOCH":"130","EPOCH":"2022-05-12T22:00:00.999936","TLE_LINE2":"2 51121  53.2176  79.6476 0001790  46.0226 158.4431 15.16394501  1307","LAUNCH_DATE":"2022-01-19","REF_FRAME":"TEME","FILE":"3442534","EPHEMERIS_TYPE":"0","ARG_OF_PERICENTER":"46.0226","MEAN_MOTION":"15.16394501","COUNTRY_CODE":"US","OBJECT_ID":"2022-005T","INCLINATION":"53.2176","RCS_SIZE":"LARGE","MEAN_ELEMENT_THEORY":"SGP4","MEAN_MOTION_DOT":"-0.00649211","CENTER_NAME":"EARTH","MEAN_MOTION_DDOT":"0.0000000000000","DECAY_DATE":null,"PERIAPSIS":"515.516"},{"ECCENTRICITY":"0.00018030","CLASSIFICATION_TYPE":"U","PERIOD":"94.941","MEAN_ANOMALY":"213.1982","TIME_SYSTEM":"UTC","TLE_LINE1":"1 51122U 22005U   22132.91667824 -.00649648  00000-0 -34877-1 0  9992","BSTAR":"-0.03487700000000","GP_ID":"203394176","SEMIMAJOR_AXIS":"6893.845","OBJECT_TYPE":"PAYLOAD","OBJECT_NAME":"STARLINK-3373","SITE":"AFETR","NORAD_CAT_ID":"51122","APOAPSIS":"516.953","RA_OF_ASC_NODE":"79.6489","ELEMENT_SET_NO":"999","COUNTRY_CODE":"US","INCLINATION":"53.2175","OBJECT_ID":"2022-005U","RCS_SIZE":"LARGE","MEAN_ELEMENT_THEORY":"SGP4","EPHEMERIS_TYPE":"0","ARG_OF_PERICENTER":"44.2913","MEAN_MOTION":"15.16737734","DECAY_DATE":null,"PERIAPSIS":"514.467","CENTER_NAME":"EARTH","MEAN_MOTION_DOT":"-0.00649648","MEAN_MOTION_DDOT":"0.0000000000000","TLE_LINE2":"2 51122  53.2175  79.6489 0001803  44.2913 213.1982 15.16737734  1308","REV_AT_EPOCH":"130","EPOCH":"2022-05-12T22:00:00.999936","REF_FRAME":"TEME","FILE":"3442534","LAUNCH_DATE":"2022-01-19"},{"DECAY_DATE":null,"PERIAPSIS":"513.663","CENTER_NAME":"EARTH","MEAN_MOTION_DOT":"-0.00650169","MEAN_MOTION_DDOT":"0.0000000000000","OBJECT_ID":"2022-005V","INCLINATION":"53.2175","COUNTRY_CODE":"US","MEAN_ELEMENT_THEORY":"SGP4","RCS_SIZE":"LARGE","ARG_OF_PERICENTER":"35.1983","EPHEMERIS_TYPE":"0","MEAN_MOTION":"15.16966619","REF_FRAME":"TEME","FILE":"3442534","LAUNCH_DATE":"2022-01-19","TLE_LINE2":"2 51123  53.2175  79.6493 0001964  35.1983 257.4686 15.16966619  1306","REV_AT_EPOCH":"130","EPOCH":"2022-05-12T22:00:00.999936","TLE_LINE1":"1 51123U 22005V   22132.91667824 -.00650169  00000-0 -34677-1 0  9991","BSTAR":"-0.03467700000000","PERIOD":"94.926","CLASSIFICATION_TYPE":"U","ECCENTRICITY":"0.00019640","TIME_SYSTEM":"UTC","MEAN_ANOMALY":"257.4686","SITE":"AFETR","APOAPSIS":"516.370","NORAD_CAT_ID":"51123","ELEMENT_SET_NO":"999","RA_OF_ASC_NODE":"79.6493","SEMIMAJOR_AXIS":"6893.152","GP_ID":"203393926","OBJECT_NAME":"STARLINK-3392","OBJECT_TYPE":"PAYLOAD"},{"RA_OF_ASC_NODE":"89.4612","ELEMENT_SET_NO":"999","NORAD_CAT_ID":"51124","APOAPSIS":"541.003","SITE":"AFETR","OBJECT_NAME":"STARLINK-3389","OBJECT_TYPE":"PAYLOAD","GP_ID":"203393175","SEMIMAJOR_AXIS":"6917.870","BSTAR":"0.00078265000000","TLE_LINE1":"1 51124U 22005W   22132.91667824  .00012191  00000-0  78265-3 0  9990","TIME_SYSTEM":"UTC","MEAN_ANOMALY":"92.0890","CLASSIFICATION_TYPE":"U","ECCENTRICITY":"0.00018340","PERIOD":"95.437","LAUNCH_DATE":"2022-01-19","FILE":"3442534","REF_FRAME":"TEME","EPOCH":"2022-05-12T22:00:00.999936","REV_AT_EPOCH":"130","TLE_LINE2":"2 51124  53.2178  89.4612 0001834  52.8048  92.0890 15.08843507  1307","MEAN_MOTION_DDOT":"0.0000000000000","CENTER_NAME":"EARTH","MEAN_MOTION_DOT":"0.00012191","PERIAPSIS":"538.466","DECAY_DATE":null,"MEAN_MOTION":"15.08843507","EPHEMERIS_TYPE":"0","ARG_OF_PERICENTER":"52.8048","RCS_SIZE":"LARGE","MEAN_ELEMENT_THEORY":"SGP4","COUNTRY_CODE":"US","OBJECT_ID":"2022-005W","INCLINATION":"53.2178"}];
